FLOCK 4BE-27            
1 60513U 24149AX  26068.75339182  .00011439  00000+0  36576-3 0  9992
2 60513  97.3862 150.6783 0002732 305.8980  54.2008 15.32593322 86906
STARLINK-32867          
1 62855U 25022B   26068.48809498  .00020982  00000+0  71877-3 0  9992
2 62855  53.1612 130.2311 0001278  68.3612 291.7525 15.30189584 61878
